STARLINK-37803          
1 69319U 26119Z   26161.50002315  .00113470  00000+0  58714-3 0  9992
2 69319  97.2837 186.9992 0001165  99.2851  10.9431 15.80753184  2920
GUOWANG TEST OBJECT A   
1 69320U 26120A   26158.46264223  .00009002  00000+0  24096-3 0  9996
2 69320  54.9967  71.5399 0009599 294.3963  65.6063 15.38803685  1198
GUOWANG TEST OBJECT B   
1 69321U 26120B   26155.27875762  .00027005  00000+0  69390-3 0  9998
2 69321  55.0006  85.8667 0009100 296.4175  63.5919 15.39121370   705
GUOWANG TEST OBJECT C   
1 69322U 26120C   26158.00485189  .00017755  00000+0  45417-3 0  9998
2 69322  54.9981  73.5721 0009555 307.3825  52.6333 15.39521743  1123
GUOWANG TEST OBJECT D   
1 69323U 26120D   26155.66644343  .00032137  00000+0  80800-3 0  9993
2 69323  55.0029  84.1123 0008002 301.7889  58.2360 15.39704502   764
QIANFAN-163             
1 69325U 26121A   26158.95635699  .00000032  00000+0  25988-4 0  9991
2 69325  89.0167 301.4498 0019200 214.2671 145.7248 13.60351284   905
QIANFAN-164             
1 69326U 26121B   26161.30910378  .00000123  00000+0  14697-3 0  9990
2 69326  89.0161 301.2110 0018835 208.3519 151.6614 13.60505035  1221
SZ-22 MODULE            
1 69328U 25272C   26161.26210028  .00019567  00000+0  23903-3 0  9990
2 69328  41.4816   4.1998 0007176  28.6099 331.5133 15.59941190  2241
STARLINK-37733          
1 69329U 26122A   26161.50002315 -.01760341  83723-3 -61279-2 0  9991
2 69329  97.2847 190.5380 0001407  90.3769 143.6531 15.89470191  2280
STARLINK-37772          
1 69330U 26122B   26161.50002315 -.01637631  73793-3 -54689-2 0  9991
2 69330  97.2850 190.5440 0001375  90.2115 157.4736 15.90281810  2236
STARLINK-37768          
1 69331U 26122C   26161.50002315 -.01643898  74527-3 -54113-2 0  9992
2 69331  97.2851 190.5459 0001376  92.1270 159.8927 15.90568483  2234
STARLINK-37833          
1 69332U 26122D   26161.50002315 -.01642922  74678-3 -53220-2 0  9995
2 69332  97.2852 190.5475 0001356  89.9567 166.3100 15.90885376  2234
STARLINK-37818          
1 69333U 26122E   26161.50002315 -.02174109  12640-2 -70075-2 0  9991
2 69333  97.2855 190.5484 0001232  98.9638 158.0921 15.91049378  2289
STARLINK-37868          
1 69334U 26122F   26161.50002315 -.01182699  40737-3 -37689-2 0  9997
2 69334  97.2856 190.5496 0001142 102.1179 158.8369 15.91143355  2286
STARLINK-37877          
1 69335U 26122G   26161.50002315 -.01179427  40524-3 -37606-2 0  9996
2 69335  97.2856 190.5498 0001116 103.2331 158.5987 15.91131636  2284
STARLINK-37791          
1 69336U 26122H   26161.50002315 -.02462635  16131-2 -77727-2 0  9998
2 69336  97.2858 190.5517 0001515 105.0182 160.9136 15.91483420  2280
STARLINK-37765          
1 69337U 26122J   26161.50002315 -.02476277  16387-2 -76369-2 0  9990
2 69337  97.2860 190.5546 0001432 108.9079 163.8922 15.91936566  2336
STARLINK-37788          
1 69338U 26122K   26161.50002315 -.00656338  13712-3 -19976-2 0  9998
2 69338  97.2863 190.5567 0000981  96.7237 180.4334 15.91971718  2285
STARLINK-37743          
1 69339U 26122L   26161.50002315 -.00659069  13819-3 -20059-2 0  9995
2 69339  97.2863 190.5570 0000958  98.2135 180.1606 15.91971819  2289
STARLINK-37780          
1 69340U 26122M   26161.50002315 -.01630537  74638-3 -49291-2 0  9992
2 69340  97.2864 190.5580 0001204  99.7090 181.4249 15.92237599  2338
STARLINK-37781          
1 69341U 26122N   26161.50002315 -.01450098  60168-3 -43375-2 0  9995
2 69341  97.2863 190.5584 0000959 100.1815 181.5902 15.92418354  2281
STARLINK-37782          
1 69342U 26122P   26161.50002315 -.01170626  40616-3 -34363-2 0  9995
2 69342  97.2862 190.5614 0001051 103.5539 185.3187 15.92741574  2289
STARLINK-37776          
1 69343U 26122Q   26161.50002315 -.01169025  40578-3 -34036-2 0  9991
2 69343  97.2861 190.5624 0001045  99.9201 191.8386 15.92899469  2287
STARLINK-37786          
1 69344U 26122R   26161.50002315 -.01164198  40450-3 -33125-2 0  9995
2 69344  97.2867 190.5654 0001008  99.1389 199.7100 15.93340811  2289
STARLINK-37785          
1 69345U 26122S   26161.50002315 -.01154634  39828-3 -32885-2 0  9999
2 69345  97.2865 190.5656 0000954  95.9830 203.7385 15.93321239  2288
STARLINK-37773          
1 69346U 26122T   26161.50002315 -.01126869  38141-3 -31791-2 0  9991
2 69346  97.2866 190.5671 0001025  98.9030 203.6387 15.93499057  2333
STARLINK-37744          
1 69347U 26122U   26161.50002315 -.01149710  39676-3 -32067-2 0  9993
2 69347  97.2866 190.5687 0000992  93.0696 213.2566 15.93720384  2287
STARLINK-37775          
1 69348U 26122V   26161.50002315 -.02421693  16088-2 -66557-2 0  9990
2 69348  97.2867 190.5705 0001090 116.8538 192.9632 15.94150508  2282
