OBJECT_NAME,OBJECT_ID,EPOCH,MEAN_MOTION,ECCENTRICITY,INCLINATION,RA_OF_ASC_NODE,ARG_OF_PERICENTER,MEAN_ANOMALY,EPHEMERIS_TYPE,CLASSIFICATION_TYPE,NORAD_CAT_ID,ELEMENT_SET_NO,REV_AT_EPOCH,BSTAR,MEAN_MOTION_DOT,MEAN_MOTION_DDOT
STARLINK-37803,2026-119Z,2026-06-10T12:00:02.000160,15.80753184,.0001165,97.2837,186.9992,99.2851,10.9431,0,U,69319,999,292,.58714E-3,.11347E-2,0
GUOWANG TEST OBJECT A,2026-120A,2026-06-07T11:06:12.288672,15.38803685,.00095994,54.9967,71.5399,294.3963,65.6063,0,U,69320,999,119,.24095813E-3,.9002E-4,0
GUOWANG TEST OBJECT B,2026-120B,2026-06-04T06:41:24.658368,15.39121370,.00091004,55.0006,85.8667,296.4175,63.5919,0,U,69321,999,70,.6938966E-3,.27005E-3,0
GUOWANG TEST OBJECT C,2026-120C,2026-06-07T00:06:59.203296,15.39521743,.00095552,54.9981,73.5721,307.3825,52.6333,0,U,69322,999,112,.45417396E-3,.17755E-3,0
GUOWANG TEST OBJECT D,2026-120D,2026-06-04T15:59:40.712352,15.39704502,.00080029,55.0029,84.1123,301.7889,58.2360,0,U,69323,999,76,.80800046E-3,.32137E-3,0
QIANFAN-163,2026-121A,2026-06-07T22:57:09.243936,13.60351284,.00192,89.0167,301.4498,214.2671,145.7248,0,U,69325,999,90,.25988E-4,.32E-6,0
QIANFAN-164,2026-121B,2026-06-10T07:25:06.566592,13.60505035,.0018835,89.0161,301.2110,208.3519,151.6614,0,U,69326,999,122,.14697E-3,.123E-5,0
SZ-22 MODULE,2025-272C,2026-06-10T06:17:25.464192,15.59941190,.0007176,41.4816,4.1998,28.6099,331.5133,0,U,69328,999,224,.23903E-3,.19567E-3,0
STARLINK-37733,2026-122A,2026-06-10T12:00:02.000160,15.89470191,.0001407,97.2847,190.5380,90.3769,143.6531,0,U,69329,999,228,-.61279E-2,-.1760341E-1,.83723E-3
STARLINK-37772,2026-122B,2026-06-10T12:00:02.000160,15.90281810,.0001375,97.2850,190.5440,90.2115,157.4736,0,U,69330,999,223,-.54689E-2,-.1637631E-1,.73793E-3
STARLINK-37768,2026-122C,2026-06-10T12:00:02.000160,15.90568483,.0001376,97.2851,190.5459,92.1270,159.8927,0,U,69331,999,223,-.54113E-2,-.1643898E-1,.74527E-3
STARLINK-37833,2026-122D,2026-06-10T12:00:02.000160,15.90885376,.0001356,97.2852,190.5475,89.9567,166.3100,0,U,69332,999,223,-.5322E-2,-.1642922E-1,.74678E-3
STARLINK-37818,2026-122E,2026-06-10T12:00:02.000160,15.91049378,.0001232,97.2855,190.5484,98.9638,158.0921,0,U,69333,999,228,-.70075E-2,-.2174109E-1,.1264E-2
STARLINK-37868,2026-122F,2026-06-10T12:00:02.000160,15.91143355,.0001142,97.2856,190.5496,102.1179,158.8369,0,U,69334,999,228,-.37689E-2,-.1182699E-1,.40737E-3
STARLINK-37877,2026-122G,2026-06-10T12:00:02.000160,15.91131636,.0001116,97.2856,190.5498,103.2331,158.5987,0,U,69335,999,228,-.37606E-2,-.1179427E-1,.40524E-3
STARLINK-37791,2026-122H,2026-06-10T12:00:02.000160,15.91483420,.0001515,97.2858,190.5517,105.0182,160.9136,0,U,69336,999,228,-.77727E-2,-.2462635E-1,.16131E-2
STARLINK-37765,2026-122J,2026-06-10T12:00:02.000160,15.91936566,.0001432,97.2860,190.5546,108.9079,163.8922,0,U,69337,999,233,-.76369E-2,-.2476277E-1,.16387E-2
STARLINK-37788,2026-122K,2026-06-10T12:00:02.000160,15.91971718,.0000981,97.2863,190.5567,96.7237,180.4334,0,U,69338,999,228,-.19976E-2,-.656338E-2,.13712E-3
STARLINK-37743,2026-122L,2026-06-10T12:00:02.000160,15.91971819,.0000958,97.2863,190.5570,98.2135,180.1606,0,U,69339,999,228,-.20059E-2,-.659069E-2,.13819E-3
STARLINK-37780,2026-122M,2026-06-10T12:00:02.000160,15.92237599,.0001204,97.2864,190.5580,99.7090,181.4249,0,U,69340,999,233,-.49291E-2,-.1630537E-1,.74638E-3
STARLINK-37781,2026-122N,2026-06-10T12:00:02.000160,15.92418354,.0000959,97.2863,190.5584,100.1815,181.5902,0,U,69341,999,228,-.43375E-2,-.1450098E-1,.60168E-3
STARLINK-37782,2026-122P,2026-06-10T12:00:02.000160,15.92741574,.0001051,97.2862,190.5614,103.5539,185.3187,0,U,69342,999,228,-.34363E-2,-.1170626E-1,.40616E-3
STARLINK-37776,2026-122Q,2026-06-10T12:00:02.000160,15.92899469,.0001045,97.2861,190.5624,99.9201,191.8386,0,U,69343,999,228,-.34036E-2,-.1169025E-1,.40578E-3
STARLINK-37786,2026-122R,2026-06-10T12:00:02.000160,15.93340811,.0001008,97.2867,190.5654,99.1389,199.7100,0,U,69344,999,228,-.33125E-2,-.1164198E-1,.4045E-3
STARLINK-37785,2026-122S,2026-06-10T12:00:02.000160,15.93321239,.0000954,97.2865,190.5656,95.9830,203.7385,0,U,69345,999,228,-.32885E-2,-.1154634E-1,.39828E-3
STARLINK-37773,2026-122T,2026-06-10T12:00:02.000160,15.93499057,.0001025,97.2866,190.5671,98.9030,203.6387,0,U,69346,999,233,-.31791E-2,-.1126869E-1,.38141E-3
STARLINK-37744,2026-122U,2026-06-10T12:00:02.000160,15.93720384,.0000992,97.2866,190.5687,93.0696,213.2566,0,U,69347,999,228,-.32067E-2,-.114971E-1,.39676E-3
STARLINK-37775,2026-122V,2026-06-10T12:00:02.000160,15.94150508,.000109,97.2867,190.5705,116.8538,192.9632,0,U,69348,999,228,-.66557E-2,-.2421693E-1,.16088E-2
